{
  "name": "SATGUS",
  "line1": "1 62713U 25009DJ  25323.15119064  .00008139  00000+0  69850-3 0  9998",
  "line2": "2 62713  97.7241  41.5308 0002889 115.3483 244.8039 14.97739334 46082",
  "fetched_at": "2025-11-20T00:18:32.007845+00:00"
}